IRIDIUM 155             
1 43573U 18061E   19361.42345330  .00000046  00000-0  94138-5 0  9992
2 43573  86.3962 324.5329 0002425 101.9288 258.2179 14.34216947 74565
IRIDIUM 154             
1 43574U 18061F   19361.47419057  .00000040  00000-0  70717-5 0  9997
2 43574  86.3966 324.5335 0001930  80.7229 279.4185 14.34217495 74613
IRIDIUM 163             
1 43575U 18061G   19361.45516244  .00000029  00000-0  33554-5 0  9997
2 43575  86.3964 324.5285 0002656  74.7684 285.3806 14.34216250 74580
IRIDIUM 156             
1 43576U 18061H   19361.42979333  .00000048  00000-0  10233-4 0  9996
2 43576  86.3961 324.5433 0002582  87.8947 272.2545 14.34216387 74562
IRIDIUM 164             
1 43577U 18061J   19361.41077111  .00000049  00000-0  10586-4 0  9991
2 43577  86.3965 324.5560 0002084  80.2972 279.8459 14.34216723 74617
IRIDIUM 159             
1 43578U 18061K   19361.44882433  .00000046  00000-0  92768-5 0  9996
2 43578  86.3963 324.5264 0002033  83.2189 276.9238 14.34218554 74587
IRIDIUM 180             
1 43922U 19002A   19361.44831491  .00000096  00000-0  27148-4 0  9997
2 43922  86.3985 261.3377 0001938  46.8959 313.2398 14.34218138 50236
IRIDIUM 176             
1 43923U 19002B   19361.44606405  .00000154  00000-0  20564-4 0  9993
2 43923  86.6120 261.3577 0002364  81.9994 278.1491 14.72252015 51470
IRIDIUM 168             
1 43924U 19002C   19361.51175727  .00000104  00000-0  30230-4 0  9996
2 43924  86.3987 261.3215 0001819  75.8311 284.3087 14.34219933 50184
IRIDIUM 173             
1 43925U 19002D   19361.42929083  .00000094  00000-0  26486-4 0  9995
2 43925  86.3984 261.3409 0001914  78.9762 281.1649 14.34219562 50162
IRIDIUM 169             
1 43926U 19002E   19361.39930951  .00000056  00000-0  11771-4 0  9997
2 43926  86.4233 292.9445 0004853 177.3247 182.7978 14.38579695 50383
IRIDIUM 172             
1 43927U 19002F   19361.28343249  .00000090  00000-0  24966-4 0  9992
2 43927  86.3984 261.4024 0001867  73.9125 286.2276 14.34215276 50141
IRIDIUM 175             
1 43928U 19002G   19361.43990280  .00000147  00000-0  19441-4 0  9998
2 43928  86.6104 261.2863 0002825 103.5954 256.5578 14.72251175 51464
IRIDIUM 171             
1 43929U 19002H   19361.47369517  .00000091  00000-0  25573-4 0  9997
2 43929  86.3993 261.3665 0001777  77.6917 282.4478 14.34218253 50165
IRIDIUM 170             
1 43930U 19002J   19361.45226950  .00000151  00000-0  20010-4 0  9998
2 43930  86.6119 261.3623 0002660  86.7341 273.4180 14.72256334 51488
IRIDIUM 167             
1 43931U 19002K   19361.46734710  .00000096  00000-0  27068-4 0  9996
2 43931  86.3985 261.3271 0001757  52.2841 307.8513 14.34219184 50161
